GLOBALSTAR M001 [-]     
1 25162U 98008A   24073.49527300 -.00000065  00000+0  24363-3 0  9999
2 25162  52.0010 234.0689 0001755  36.4744 358.4700 12.38179079186643
GLOBALSTAR M004 [-]     
1 25163U 98008B   24073.57308433 -.00000051  00000+0  29452-3 0  9992
2 25163  52.0021  19.3296 0003119 356.1290 175.2288 12.63352437203463
GLOBALSTAR M002 [-]     
1 25164U 98008C   24073.41228357 -.00000049  00000+0  54100-3 0  9997
2 25164  52.0031 315.5144 0001896  38.9459 321.1497 11.61498947130524
GLOBALSTAR M003 [-]     
1 25165U 98008D   24073.56459113  .00000043  00000+0  14128-2 0  9998
2 25165  51.9862   4.2957 0008402  86.0818  84.9356 12.11984961177365
GLOBALSTAR M014 [-]     
1 25306U 98023A   24073.25166557 -.00000082  00000+0 -76214-4 0  9996
2 25306  51.9812 248.8283 0000698 158.8036  12.3621 11.65465692137420
GLOBALSTAR M006 [-]     
1 25307U 98023B   24073.36893818 -.00000057  00000+0  38626-3 0  9991
2 25307  51.9925 283.7851 0004004  13.0897 158.7322 11.58157524163434
GLOBALSTAR M015 [-]     
1 25308U 98023C   24073.55412486 -.00000133  00000+0 -13567-2 0  9993
2 25308  51.9860   0.6804 0012595 338.5029 191.9202 11.48852599141135
GLOBALSTAR M008 [-]     
1 25309U 98023D   24073.37722140 -.00000066  00000+0  23945-3 0  9991
2 25309  51.9957  94.0231 0002263 282.2744  91.2116 12.36038052180861
